{"type": "FeatureCollection", "features": [ {"type": "Feature", "properties": {"norad_id": 34949, "name": "COSMOS 2251 DEB", "group": "cosmos-2251-debris", "lat": -66.94354181564192, "lon": -7.618464090856272, "alt_km": 603.9940119188432, "timestamp": "2025-12-02T07:10:09.511849+00:00", "meta": {"OBJECT_NAME": "COSMOS 2251 DEB", "OBJECT_ID": "1993-036AEC", "EPOCH": "2025-12-01T16:59:10.526208", "MEAN_MOTION": 14.73873554, "ECCENTRICITY": 0.008048, "INCLINATION": 74.0165, "RA_OF_ASC_NODE": 131.2052, "ARG_OF_PERICENTER": 278.7598, "MEAN_ANOMALY": 80.4466, "EPHEMERIS_TYPE": 0, "CLASSIFICATION_TYPE": "U", "NORAD_CAT_ID": 34949, "ELEMENT_SET_NO": 999, "REV_AT_EPOCH": 88199, "BSTAR": 0.00050423, "MEAN_MOTION_DOT": 3.446e-05, "MEAN_MOTION_DDOT": 0}, "tle": {"line1": "1 34949U 93036AEC 25335.70776072  .00003446  00000+0  50423-3 0  9997", "line2": "2 34949  74.0165 131.2052 0080480 278.7598  80.4466 14.73873554881994"}}, "geometry": {"type": "Point", "coordinates": [-7.618464090856272, -66.94354181564192]}}, {"type": "Feature", "properties": {"norad_id": 34953, "name": "COSMOS 2251 DEB", "group": "cosmos-2251-debris", "lat": 55.41665505277763, "lon": 72.06223891923392, "alt_km": 620.2941377656734, "timestamp": "2025-12-02T07:10:09.511859+00:00", "meta": {"OBJECT_NAME": "COSMOS 2251 DEB", "OBJECT_ID": "1993-036AEG", "EPOCH": "2025-12-01T13:12:33.253632", "MEAN_MOTION": 14.68789994, "ECCENTRICITY": 0.00575572, "INCLINATION": 74.0939, "RA_OF_ASC_NODE": 49.072, "ARG_OF_PERICENTER": 44.6171, "MEAN_ANOMALY": 18.8426, "EPHEMERIS_TYPE": 0, "CLASSIFICATION_TYPE": "U", "NORAD_CAT_ID": 34953, "ELEMENT_SET_NO": 999, "REV_AT_EPOCH": 87964, "BSTAR": 0.00082002331, "MEAN_MOTION_DOT": 4.878e-05, "MEAN_MOTION_DDOT": 0}, "tle": {"line1": "1 34953U 93036AEG 25335.55038488  .00004878  00000+0  82002-3 0  9995", "line2": "2 34953  74.0939  49.0720 0057557  44.6171  18.8426 14.68789994879640"}}, "geometry": {"type": "Point", "coordinates": [72.06223891923392, 55.41665505277763]}}, {"type": "Feature", "properties": {"norad_id": 34955, "name": "COSMOS 2251 DEB", "group": "cosmos-2251-debris", "lat": 73.99597140983212, "lon": 1.38452493606593, "alt_km": 578.1124320466924, "timestamp": "2025-12-02T07:10:09.511869+00:00", "meta": {"OBJECT_NAME": "COSMOS 2251 DEB", "OBJECT_ID": "1993-036AEJ", "EPOCH": "2025-12-01T13:09:43.011072", "MEAN_MOTION": 15.0013692, "ECCENTRICITY": 0.00783487, "INCLINATION": 74.0371, "RA_OF_ASC_NODE": 269.2628, "ARG_OF_PERICENTER": 341.7271, "MEAN_ANOMALY": 18.1102, "EPHEMERIS_TYPE": 0, "CLASSIFICATION_TYPE": "U", "NORAD_CAT_ID": 34955, "ELEMENT_SET_NO": 999, "REV_AT_EPOCH": 89866, "BSTAR": 0.0010112451, "MEAN_MOTION_DOT": 0.00013453, "MEAN_MOTION_DDOT": 0}, "tle": {"line1": "1 34955U 93036AEJ 25335.54841448  .00013453  00000+0  10112-2 0  9995", "line2": "2 34955  74.0371 269.2628 0078348 341.7271  18.1102 15.00136920898667"}}, "geometry": {"type": "Point", "coordinates": [1.38452493606593, 73.99597140983212]}}, {"type": "Feature", "properties": {"norad_id": 34962, "name": "COSMOS 2251 DEB", "group": "cosmos-2251-debris", "lat": 69.41774743858034, "lon": -16.822117969423516, "alt_km": 739.5967692183112, "timestamp": "2025-12-02T07:10:09.511895+00:00", "meta": {"OBJECT_NAME": "COSMOS 2251 DEB", "OBJECT_ID": "1993-036AER", "EPOCH": "2025-11-29T02:20:21.454656", "MEAN_MOTION": 14.46453458, "ECCENTRICITY": 0.00184443, "INCLINATION": 74.0305, "RA_OF_ASC_NODE": 218.8446, "ARG_OF_PERICENTER": 333.6631, "MEAN_ANOMALY": 26.3588, "EPHEMERIS_TYPE": 0, "CLASSIFICATION_TYPE": "U", "NORAD_CAT_ID": 34962, "ELEMENT_SET_NO": 999, "REV_AT_EPOCH": 87381, "BSTAR": 0.00047746482, "MEAN_MOTION_DOT": 1.694e-05, "MEAN_MOTION_DDOT": 0}, "tle": {"line1": "1 34962U 93036AER 25333.09747054  .00001694  00000+0  47746-3 0  9997", "line2": "2 34962  74.0305 218.8446 0018444 333.6631  26.3588 14.46453458873817"}}, "geometry": {"type": "Point", "coordinates": [-16.822117969423516, 69.41774743858034]}}, {"type": "Feature", "properties": {"norad_id": 34963, "name": "COSMOS 2251 DEB", "group": "cosmos-2251-debris", "lat": -10.976898158396889, "lon": -114.61451582822596, "alt_km": 715.4453662991473, "timestamp": "2025-12-02T07:10:09.511906+00:00", "meta": {"OBJECT_NAME": "COSMOS 2251 DEB", "OBJECT_ID": "1993-036AES", "EPOCH": "2025-11-20T14:36:14.688576", "MEAN_MOTION": 14.50758017, "ECCENTRICITY": 0.00421878, "INCLINATION": 74.1713, "RA_OF_ASC_NODE": 84.0219, "ARG_OF_PERICENTER": 284.4626, "MEAN_ANOMALY": 75.1856, "EPHEMERIS_TYPE": 0, "CLASSIFICATION_TYPE": "U", "NORAD_CAT_ID": 34963, "ELEMENT_SET_NO": 999, "REV_AT_EPOCH": 86480, "BSTAR": 0.0012237467, "MEAN_MOTION_DOT": 4.847e-05, "MEAN_MOTION_DDOT": 0}, "tle": {"line1": "1 34963U 93036AES 25324.60850334  .00004847  00000+0  12237-2 0  9990", "line2": "2 34963  74.1713  84.0219 0042187 284.4626  75.1856 14.50758017864804"}}, "geometry": {"type": "Point", "coordinates": [-114.61451582822596, -10.976898158396889]}}, {"type": "Feature", "properties": {"norad_id": 34964, "name": "COSMOS 2251 DEB", "group": "cosmos-2251-debris", "lat": -50.025540526095234, "lon": -14.039246254269138, "alt_km": 870.243065285832, "timestamp": "2025-12-02T07:10:09.511916+00:00", "meta": {"OBJECT_NAME": "COSMOS 2251 DEB", "OBJECT_ID": "1993-036AET", "EPOCH": "2025-12-01T10:51:07.970112", "MEAN_MOTION": 14.00515212, "ECCENTRICITY": 0.02132053, "INCLINATION": 73.9732, "RA_OF_ASC_NODE": 7.4842, "ARG_OF_PERICENTER": 228.1536, "MEAN_ANOMALY": 130.1229, "EPHEMERIS_TYPE": 0, "CLASSIFICATION_TYPE": "U", "NORAD_CAT_ID": 34964, "ELEMENT_SET_NO": 999, "REV_AT_EPOCH": 84320, "BSTAR": 0.0017784594, "MEAN_MOTION_DOT": 3.191e-05, "MEAN_MOTION_DDOT": 0}, "tle": {"line1": "1 34964U 93036AET 25335.45217558  .00003191  00000+0  17785-2 0  9995", "line2": "2 34964  73.9732   7.4842 0213205 228.1536 130.1229 14.00515212843200"}}, "geometry": {"type": "Point", "coordinates": [-14.039246254269138, -50.025540526095234]}}, {"type": "Feature", "properties": {"norad_id": 34965, "name": "COSMOS 2251 DEB", "group": "cosmos-2251-debris", "lat": 7.756998230852778, "lon": 150.24539137401374, "alt_km": 731.9989646618797, "timestamp": "2025-12-02T07:10:09.511926+00:00", "meta": {"OBJECT_NAME": "COSMOS 2251 DEB", "OBJECT_ID": "1993-036AEU", "EPOCH": "2025-12-01T19:31:49.894752", "MEAN_MOTION": 14.48658703, "ECCENTRICITY": 0.0026574, "INCLINATION": 74.05, "RA_OF_ASC_NODE": 148.9203, "ARG_OF_PERICENTER": 277.8198, "MEAN_ANOMALY": 81.9945, "EPHEMERIS_TYPE": 0, "CLASSIFICATION_TYPE": "U", "NORAD_CAT_ID": 34965, "ELEMENT_SET_NO": 999, "REV_AT_EPOCH": 86955, "BSTAR": 0.00033424, "MEAN_MOTION_DOT": 1.236e-05, "MEAN_MOTION_DDOT": 0}, "tle": {"line1": "1 34965U 93036AEU 25335.81377193  .00001236  00000+0  33424-3 0  9995", "line2": "2 34965  74.0500 148.9203 0026574 277.8198  81.9945 14.48658703869553"}}, "geometry": {"type": "Point", "coordinates": [150.24539137401374, 7.756998230852778]}}, {"type": "Feature", "properties": {"norad_id": 34967, "name": "COSMOS 2251 DEB", "group": "cosmos-2251-debris", "lat": 73.54245987205924, "lon": -10.319173458492138, "alt_km": 712.9030542845439, "timestamp": "2025-12-02T07:10:09.511962+00:00", "meta": {"OBJECT_NAME": "COSMOS 2251 DEB", "OBJECT_ID": "1993-036AEW", "EPOCH": "2025-12-01T02:30:41.683104", "MEAN_MOTION": 14.44168549, "ECCENTRICITY": 0.00374829, "INCLINATION": 73.9933, "RA_OF_ASC_NODE": 275.5612, "ARG_OF_PERICENTER": 64.8384, "MEAN_ANOMALY": 295.6653, "EPHEMERIS_TYPE": 0, "CLASSIFICATION_TYPE": "U", "NORAD_CAT_ID": 34967, "ELEMENT_SET_NO": 999, "REV_AT_EPOCH": 64789, "BSTAR": 0.00079995093, "MEAN_MOTION_DOT": 2.741e-05, "MEAN_MOTION_DDOT": 0}, "tle": {"line1": "1 34967U 93036AEW 25335.10464911  .00002741  00000+0  79995-3 0  9999", "line2": "2 34967  73.9933 275.5612 0037482  64.8384 295.6653 14.44168549647896"}}, "geometry": {"type": "Point", "coordinates": [-10.319173458492138, 73.54245987205924]}}, {"type": "Feature", "properties": {"norad_id": 34968, "name": "COSMOS 2251 DEB", "group": "cosmos-2251-debris", "lat": 73.76322031904924, "lon": 7.628285757737189, "alt_km": 659.5765765911419, "timestamp": "2025-12-02T07:10:09.511973+00:00", "meta": {"OBJECT_NAME": "COSMOS 2251 DEB", "OBJECT_ID": "1993-036AEX", "EPOCH": "2025-12-01T06:04:23.265984", "MEAN_MOTION": 14.59370884, "ECCENTRICITY": 0.00861989, "INCLINATION": 74.0389, "RA_OF_ASC_NODE": 268.9634, "ARG_OF_PERICENTER": 32.3361, "MEAN_ANOMALY": 328.3045, "EPHEMERIS_TYPE": 0, "CLASSIFICATION_TYPE": "U", "NORAD_CAT_ID": 34968, "ELEMENT_SET_NO": 999, "REV_AT_EPOCH": 88310, "BSTAR": 0.00023277186, "MEAN_MOTION_DOT": 1.129e-05, "MEAN_MOTION_DDOT": 0}, "tle": {"line1": "1 34968U 93036AEX 25335.25304706  .00001129  00000+0  23277-3 0  9992", "line2": "2 34968  74.0389 268.9634 0086198  32.3361 328.3045 14.59370884883105"}}, "geometry": {"type": "Point", "coordinates": [7.628285757737189, 73.76322031904924]}}, {"type": "Feature", "properties": {"norad_id": 34969, "name": "COSMOS 2251 DEB", "group": "cosmos-2251-debris", "lat": 55.08548083371886, "lon": -162.02325754717097, "alt_km": 748.9855306737845, "timestamp": "2025-12-02T07:10:09.511983+00:00", "meta": {"OBJECT_NAME": "COSMOS 2251 DEB", "OBJECT_ID": "1993-036AEY", "EPOCH": "2025-11-27T22:39:52.818912", "MEAN_MOTION": 14.32217313, "ECCENTRICITY": 0.0074445, "INCLINATION": 74.0147, "RA_OF_ASC_NODE": 50.1773, "ARG_OF_PERICENTER": 186.867, "MEAN_ANOMALY": 173.1469, "EPHEMERIS_TYPE": 0, "CLASSIFICATION_TYPE": "U", "NORAD_CAT_ID": 34969, "ELEMENT_SET_NO": 999, "REV_AT_EPOCH": 64925, "BSTAR": 0.00041332, "MEAN_MOTION_DOT": 1.123e-05, "MEAN_MOTION_DDOT": 0}, "tle": {"line1": "1 34969U 93036AEY 25331.94436133  .00001123  00000+0  41332-3 0  9991", "line2": "2 34969  74.0147  50.1773 0074445 186.8670 173.1469 14.32217313649253"}}, "geometry": {"type": "Point", "coordinates": [-162.02325754717097, 55.08548083371886]}}]}